{
  "type": "FeatureCollection",
  "features": [
    {
      "type": "Feature",
      "properties": {
        "norad_id": 37836,
        "name": "EUTELSAT 16A",
        "group": "eutelsat",
        "lat": -0.04018507572157721,
        "lon": -167.7996153279121,
        "alt_km": 35781.93002269733,
        "timestamp": "2025-12-21T05:44:51.247274+00:00",
        "meta_object_name": "EUTELSAT 16A",
        "meta_object_id": "2011-057A",
        "meta_epoch": "2025-12-20T21:52:02.394912",
        "meta_mean_motion": 1.00269473,
        "meta_eccentricity": 0.00058644,
        "meta_inclination": 0.0593,
        "meta_ra_of_asc_node": 338.7886,
        "meta_arg_of_pericenter": 292.3834,
        "meta_mean_anomaly": 162.5791,
        "meta_ephemeris_type": 0,
        "meta_classification_type": "U",
        "meta_norad_cat_id": 37836,
        "meta_element_set_no": 999,
        "meta_rev_at_epoch": 554,
        "meta_bstar": 0,
        "meta_mean_motion_dot": 1.27e-06,
        "meta_mean_motion_ddot": 0,
        "tle_line1": "1 37836U 11057A   25354.91113883  .00000127  00000+0  00000+0 0  9992",
        "tle_line2": "2 37836   0.0593 338.7886 0005864 292.3834 162.5791  1.00269473  5540"
      },
      "geometry": {
        "type": "Point",
        "coordinates": [
          -167.7996153279121,
          -0.04018507572157721
        ]
      }
    },
    {
      "type": "Feature",
      "properties": {
        "norad_id": 38992,
        "name": "EUTELSAT 21B",
        "group": "eutelsat",
        "lat": -0.05095063417063544,
        "lon": -162.17407051106153,
        "alt_km": 35783.401875783165,
        "timestamp": "2025-12-21T05:44:51.247286+00:00",
        "meta_object_name": "EUTELSAT 21B",
        "meta_object_id": "2012-062B",
        "meta_epoch": "2025-12-20T21:53:32.250912",
        "meta_mean_motion": 1.00269255,
        "meta_eccentricity": 0.00032623,
        "meta_inclination": 0.0684,
        "meta_ra_of_asc_node": 340.8019,
        "meta_arg_of_pericenter": 293.0194,
        "meta_mean_anomaly": 165.9012,
        "meta_ephemeris_type": 0,
        "meta_classification_type": "U",
        "meta_norad_cat_id": 38992,
        "meta_element_set_no": 999,
        "meta_rev_at_epoch": 4804,
        "meta_bstar": 0,
        "meta_mean_motion_dot": 1.53e-06,
        "meta_mean_motion_ddot": 0,
        "tle_line1": "1 38992U 12062B   25354.91217883  .00000153  00000+0  00000+0 0  9997",
        "tle_line2": "2 38992   0.0684 340.8019 0003262 293.0194 165.9012  1.00269255 48047"
      },
      "geometry": {
        "type": "Point",
        "coordinates": [
          -162.17407051106153,
          -0.05095063417063544
        ]
      }
    },
    {
      "type": "Feature",
      "properties": {
        "norad_id": 39020,
        "name": "EUTELSAT 70B",
        "group": "eutelsat",
        "lat": -0.0784643435311401,
        "lon": -113.25039881803177,
        "alt_km": 35768.262404228335,
        "timestamp": "2025-12-21T05:44:51.247298+00:00",
        "meta_object_name": "EUTELSAT 70B",
        "meta_object_id": "2012-069A",
        "meta_epoch": "2025-12-20T22:45:38.888064",
        "meta_mean_motion": 1.00271499,
        "meta_eccentricity": 0.00042643,
        "meta_inclination": 0.0613,
        "meta_ra_of_asc_node": 5.6745,
        "meta_arg_of_pericenter": 248.4555,
        "meta_mean_anomaly": 247.5466,
        "meta_ephemeris_type": 0,
        "meta_classification_type": "U",
        "meta_norad_cat_id": 39020,
        "meta_element_set_no": 999,
        "meta_rev_at_epoch": 4772,
        "meta_bstar": 0,
        "meta_mean_motion_dot": -2e-07,
        "meta_mean_motion_ddot": 0,
        "tle_line1": "1 39020U 12069A   25354.94836676 -.00000020  00000+0  00000+0 0  9991",
        "tle_line2": "2 39020   0.0613   5.6745 0004264 248.4555 247.5466  1.00271499 47729"
      },
      "geometry": {
        "type": "Point",
        "coordinates": [
          -113.25039881803177,
          -0.0784643435311401
        ]
      }
    },
    {
      "type": "Feature",
      "properties": {
        "norad_id": 39122,
        "name": "EUTELSAT 117 WEST A",
        "group": "eutelsat",
        "lat": 0.043813590997793424,
        "lon": 59.51413508749818,
        "alt_km": 35794.93038126221,
        "timestamp": "2025-12-21T05:44:51.247310+00:00",
        "meta_object_name": "EUTELSAT 117 WEST A",
        "meta_object_id": "2013-012A",
        "meta_epoch": "2025-12-20T21:14:06.028800",
        "meta_mean_motion": 1.00274676,
        "meta_eccentricity": 0.00028106,
        "meta_inclination": 0.0296,
        "meta_ra_of_asc_node": 303.2557,
        "meta_arg_of_pericenter": 331.9621,
        "meta_mean_anomaly": 16.2445,
        "meta_ephemeris_type": 0,
        "meta_classification_type": "U",
        "meta_norad_cat_id": 39122,
        "meta_element_set_no": 999,
        "meta_rev_at_epoch": 4664,
        "meta_bstar": 0,
        "meta_mean_motion_dot": 1e-07,
        "meta_mean_motion_ddot": 0,
        "tle_line1": "1 39122U 13012A   25354.88479200  .00000010  00000+0  00000+0 0  9990",
        "tle_line2": "2 39122   0.0296 303.2557 0002810 331.9621  16.2445  1.00274676 46642"
      },
      "geometry": {
        "type": "Point",
        "coordinates": [
          59.51413508749818,
          0.043813590997793424
        ]
      }
    },
    {
      "type": "Feature",
      "properties": {
        "norad_id": 39163,
        "name": "EUTELSAT 7B",
        "group": "eutelsat",
        "lat": -0.004810872779757288,
        "lon": -176.77082033470393,
        "alt_km": 35800.16228561497,
        "timestamp": "2025-12-21T05:44:51.247322+00:00",
        "meta_object_name": "EUTELSAT 7B",
        "meta_object_id": "2013-022A",
        "meta_epoch": "2025-12-20T21:49:25.146048",
        "meta_mean_motion": 1.00270887,
        "meta_eccentricity": 0.00043774,
        "meta_inclination": 0.0649,
        "meta_ra_of_asc_node": 0.4342,
        "meta_arg_of_pericenter": 321.8208,
        "meta_mean_anomaly": 101.8327,
        "meta_ephemeris_type": 0,
        "meta_classification_type": "U",
        "meta_norad_cat_id": 39163,
        "meta_element_set_no": 999,
        "meta_rev_at_epoch": 4616,
        "meta_bstar": 0,
        "meta_mean_motion_dot": 7.1e-07,
        "meta_mean_motion_ddot": 0,
        "tle_line1": "1 39163U 13022A   25354.90931882  .00000071  00000+0  00000+0 0  9995",
        "tle_line2": "2 39163   0.0649   0.4342 0004377 321.8208 101.8327  1.00270887 46163"
      },
      "geometry": {
        "type": "Point",
        "coordinates": [
          -176.77082033470393,
          -0.004810872779757288
        ]
      }
    },
    {
      "type": "Feature",
      "properties": {
        "norad_id": 39612,
        "name": "EXPRESS-AT1",
        "group": "eutelsat",
        "lat": -0.029757697955450062,
        "lon": -127.72507737616269,
        "alt_km": 35786.248732755696,
        "timestamp": "2025-12-21T05:44:51.247339+00:00",
        "meta_object_name": "EXPRESS-AT1",
        "meta_object_id": "2014-010A",
        "meta_epoch": "2025-12-20T23:02:21.700032",
        "meta_mean_motion": 1.00271707,
        "meta_eccentricity": 8.668e-05,
        "meta_inclination": 0.0151,
        "meta_ra_of_asc_node": 304.288,
        "meta_arg_of_pericenter": 195.6931,
        "meta_mean_anomaly": 351.3941,
        "meta_ephemeris_type": 0,
        "meta_classification_type": "U",
        "meta_norad_cat_id": 39612,
        "meta_element_set_no": 999,
        "meta_rev_at_epoch": 4303,
        "meta_bstar": 0,
        "meta_mean_motion_dot": 1.02e-06,
        "meta_mean_motion_ddot": 0,
        "tle_line1": "1 39612U 14010A   25354.95997338  .00000102  00000+0  00000+0 0  9990",
        "tle_line2": "2 39612   0.0151 304.2880 0000866 195.6931 351.3941  1.00271707 43030"
      },
      "geometry": {
        "type": "Point",
        "coordinates": [
          -127.72507737616269,
          -0.029757697955450062
        ]
      }
    },
    {
      "type": "Feature",
      "properties": {
        "norad_id": 39613,
        "name": "EXPRESS-AT2",
        "group": "eutelsat",
        "lat": -0.017321709589260957,
        "lon": -43.87365381968817,
        "alt_km": 35782.325028748935,
        "timestamp": "2025-12-21T05:44:51.247362+00:00",
        "meta_object_name": "EXPRESS-AT2",
        "meta_object_id": "2014-010B",
        "meta_epoch": "2025-12-20T22:27:21.513024",
        "meta_mean_motion": 1.00271108,
        "meta_eccentricity": 0.0001041,
        "meta_inclination": 0.0185,
        "meta_ra_of_asc_node": 328.609,
        "meta_arg_of_pericenter": 322.4544,
        "meta_mean_anomaly": 275.3941,
        "meta_ephemeris_type": 0,
        "meta_classification_type": "U",
        "meta_norad_cat_id": 39613,
        "meta_element_set_no": 999,
        "meta_rev_at_epoch": 4271,
        "meta_bstar": 0,
        "meta_mean_motion_dot": -2.58e-06,
        "meta_mean_motion_ddot": 0,
        "tle_line1": "1 39613U 14010B   25354.93566566 -.00000258  00000+0  00000+0 0  9997",
        "tle_line2": "2 39613   0.0185 328.6090 0001041 322.4544 275.3941  1.00271108 42711"
      },
      "geometry": {
        "type": "Point",
        "coordinates": [
          -43.87365381968817,
          -0.017321709589260957
        ]
      }
    }
  ]
}